COSMOS 2251 DEB         
1 37343U 93036BLK 17344.53484704  .00000550  00000-0  19236-3 0  9999
2 37343  74.0225 293.0817 0128006 261.1277  97.5364 14.33176168414693
